{"type": "FeatureCollection", "features": [ {"type": "Feature", "properties": {"norad_id": 33867, "name": "IRIDIUM 33 DEB", "group": "iridium-33-debris", "lat": -23.253812478963468, "lon": -16.1782747461438, "alt_km": 315.0598777694195, "timestamp": "2025-12-21T16:47:55.123360+00:00", "meta": {"OBJECT_NAME": "IRIDIUM 33 DEB", "OBJECT_ID": "1997-051AL", "EPOCH": "2025-12-20T00:00:24.546240", "MEAN_MOTION": 15.83320916, "ECCENTRICITY": 0.00135723, "INCLINATION": 86.3644, "RA_OF_ASC_NODE": 346.2932, "ARG_OF_PERICENTER": 95.1198, "MEAN_ANOMALY": 265.1629, "EPHEMERIS_TYPE": 0, "CLASSIFICATION_TYPE": "U", "NORAD_CAT_ID": 33867, "ELEMENT_SET_NO": 999, "REV_AT_EPOCH": 89625, "BSTAR": 0.0064207293, "MEAN_MOTION_DOT": 0.01574163, "MEAN_MOTION_DDOT": 0}, "tle": {"line1": "1 33867U 97051AL  25354.00028410  .01574163  00000+0  64207-2 0  9990", "line2": "2 33867  86.3644 346.2932 0013572  95.1198 265.1629 15.83320916896259"}}, "geometry": {"type": "Point", "coordinates": [-16.1782747461438, -23.253812478963468]}}, {"type": "Feature", "properties": {"norad_id": 33870, "name": "IRIDIUM 33 DEB", "group": "iridium-33-debris", "lat": 44.20975934060864, "lon": -129.1165489567326, "alt_km": 720.0422173608376, "timestamp": "2025-12-21T16:47:55.123371+00:00", "meta": {"OBJECT_NAME": "IRIDIUM 33 DEB", "OBJECT_ID": "1997-051AP", "EPOCH": "2025-12-21T02:58:57.296064", "MEAN_MOTION": 14.45889028, "ECCENTRICITY": 0.00222885, "INCLINATION": 86.3739, "RA_OF_ASC_NODE": 54.6669, "ARG_OF_PERICENTER": 151.351, "MEAN_ANOMALY": 229.7461, "EPHEMERIS_TYPE": 0, "CLASSIFICATION_TYPE": "U", "NORAD_CAT_ID": 33870, "ELEMENT_SET_NO": 999, "REV_AT_EPOCH": 88258, "BSTAR": 0.00047353054, "MEAN_MOTION_DOT": 1.707e-05, "MEAN_MOTION_DDOT": 0}, "tle": {"line1": "1 33870U 97051AP  25355.12427426  .00001707  00000+0  47353-3 0  9990", "line2": "2 33870  86.3739  54.6669 0022288 151.3510 229.7461 14.45889028882584"}}, "geometry": {"type": "Point", "coordinates": [-129.1165489567326, 44.20975934060864]}}, {"type": "Feature", "properties": {"norad_id": 33881, "name": "IRIDIUM 33 DEB", "group": "iridium-33-debris", "lat": -9.29807324215543, "lon": 102.2553663090448, "alt_km": 747.2633352172115, "timestamp": "2025-12-21T16:47:55.123383+00:00", "meta": {"OBJECT_NAME": "IRIDIUM 33 DEB", "OBJECT_ID": "1997-051BA", "EPOCH": "2025-12-21T08:54:02.892384", "MEAN_MOTION": 14.56711951, "ECCENTRICITY": 0.0061244, "INCLINATION": 86.3865, "RA_OF_ASC_NODE": 102.9912, "ARG_OF_PERICENTER": 146.8792, "MEAN_ANOMALY": 279.602, "EPHEMERIS_TYPE": 0, "CLASSIFICATION_TYPE": "U", "NORAD_CAT_ID": 33881, "ELEMENT_SET_NO": 999, "REV_AT_EPOCH": 87626, "BSTAR": 0.0014451, "MEAN_MOTION_DOT": 6.645e-05, "MEAN_MOTION_DDOT": 0}, "tle": {"line1": "1 33881U 97051BA  25355.37086681  .00006645  00000+0  14451-2 0  9991", "line2": "2 33881  86.3865 102.9912 0061244 146.8792 279.6020 14.56711951876264"}}, "geometry": {"type": "Point", "coordinates": [102.2553663090448, -9.29807324215543]}}, {"type": "Feature", "properties": {"norad_id": 33884, "name": "IRIDIUM 33 DEB", "group": "iridium-33-debris", "lat": -69.38698105436806, "lon": -164.50765487741072, "alt_km": 639.3760160410284, "timestamp": "2025-12-21T16:47:55.123394+00:00", "meta": {"OBJECT_NAME": "IRIDIUM 33 DEB", "OBJECT_ID": "1997-051BD", "EPOCH": "2025-12-21T09:23:30.185376", "MEAN_MOTION": 14.77584501, "ECCENTRICITY": 0.0009051, "INCLINATION": 86.3691, "RA_OF_ASC_NODE": 5.9125, "ARG_OF_PERICENTER": 289.7226, "MEAN_ANOMALY": 119.4143, "EPHEMERIS_TYPE": 0, "CLASSIFICATION_TYPE": "U", "NORAD_CAT_ID": 33884, "ELEMENT_SET_NO": 999, "REV_AT_EPOCH": 88975, "BSTAR": 0.0011814, "MEAN_MOTION_DOT": 8.471e-05, "MEAN_MOTION_DDOT": 0}, "tle": {"line1": "1 33884U 97051BD  25355.39132159  .00008471  00000+0  11814-2 0  9997", "line2": "2 33884  86.3691   5.9125 0009051 289.7226 119.4143 14.77584501889756"}}, "geometry": {"type": "Point", "coordinates": [-164.50765487741072, -69.38698105436806]}}, {"type": "Feature", "properties": {"norad_id": 33886, "name": "IRIDIUM 33 DEB", "group": "iridium-33-debris", "lat": -79.16552807640191, "lon": 44.15395210797973, "alt_km": 775.8641887689719, "timestamp": "2025-12-21T16:47:55.123405+00:00", "meta": {"OBJECT_NAME": "IRIDIUM 33 DEB", "OBJECT_ID": "1997-051BF", "EPOCH": "2025-12-21T04:03:59.785344", "MEAN_MOTION": 14.36060793, "ECCENTRICITY": 0.00130464, "INCLINATION": 86.3823, "RA_OF_ASC_NODE": 63.6806, "ARG_OF_PERICENTER": 211.4193, "MEAN_ANOMALY": 207.8203, "EPHEMERIS_TYPE": 0, "CLASSIFICATION_TYPE": "U", "NORAD_CAT_ID": 33886, "ELEMENT_SET_NO": 999, "REV_AT_EPOCH": 88173, "BSTAR": 0.00013446933, "MEAN_MOTION_DOT": 4.11e-06, "MEAN_MOTION_DDOT": 0}, "tle": {"line1": "1 33886U 97051BF  25355.16944196  .00000411  00000+0  13447-3 0  9997", "line2": "2 33886  86.3823  63.6806 0013046 211.4193 207.8203 14.36060793881732"}}, "geometry": {"type": "Point", "coordinates": [44.15395210797973, -79.16552807640191]}}, {"type": "Feature", "properties": {"norad_id": 33887, "name": "IRIDIUM 33 DEB", "group": "iridium-33-debris", "lat": -73.6719346956826, "lon": -167.7227690555668, "alt_km": 773.3186650900243, "timestamp": "2025-12-21T16:47:55.123415+00:00", "meta": {"OBJECT_NAME": "IRIDIUM 33 DEB", "OBJECT_ID": "1997-051BG", "EPOCH": "2025-12-21T12:52:53.713056", "MEAN_MOTION": 14.37228392, "ECCENTRICITY": 0.0005369, "INCLINATION": 86.3041, "RA_OF_ASC_NODE": 359.6009, "ARG_OF_PERICENTER": 191.7702, "MEAN_ANOMALY": 298.3026, "EPHEMERIS_TYPE": 0, "CLASSIFICATION_TYPE": "U", "NORAD_CAT_ID": 33887, "ELEMENT_SET_NO": 999, "REV_AT_EPOCH": 88291, "BSTAR": 0.00012024, "MEAN_MOTION_DOT": 3.78e-06, "MEAN_MOTION_DDOT": 0}, "tle": {"line1": "1 33887U 97051BG  25355.53673279  .00000378  00000+0  12024-3 0  9992", "line2": "2 33887  86.3041 359.6009 0005369 191.7702 298.3026 14.37228392882914"}}, "geometry": {"type": "Point", "coordinates": [-167.7227690555668, -73.6719346956826]}}, {"type": "Feature", "properties": {"norad_id": 33953, "name": "IRIDIUM 33 DEB", "group": "iridium-33-debris", "lat": -26.42846715989255, "lon": 48.08943918569317, "alt_km": 716.4188793333187, "timestamp": "2025-12-21T16:47:55.123425+00:00", "meta": {"OBJECT_NAME": "IRIDIUM 33 DEB", "OBJECT_ID": "1997-051BN", "EPOCH": "2025-12-21T03:57:52.116192", "MEAN_MOTION": 14.55395308, "ECCENTRICITY": 0.00178869, "INCLINATION": 86.3839, "RA_OF_ASC_NODE": 50.1227, "ARG_OF_PERICENTER": 77.1433, "MEAN_ANOMALY": 336.6692, "EPHEMERIS_TYPE": 0, "CLASSIFICATION_TYPE": "U", "NORAD_CAT_ID": 33953, "ELEMENT_SET_NO": 999, "REV_AT_EPOCH": 88426, "BSTAR": 0.0006943937, "MEAN_MOTION_DOT": 3.042e-05, "MEAN_MOTION_DDOT": 0}, "tle": {"line1": "1 33953U 97051BN  25355.16518653  .00003042  00000+0  69439-3 0  9992", "line2": "2 33953  86.3839  50.1227 0017886  77.1433 336.6692 14.55395308884260"}}, "geometry": {"type": "Point", "coordinates": [48.08943918569317, -26.42846715989255]}}, {"type": "Feature", "properties": {"norad_id": 33960, "name": "IRIDIUM 33 DEB", "group": "iridium-33-debris", "lat": 25.700372695406394, "lon": -72.90482039228053, "alt_km": 606.1546671544038, "timestamp": "2025-12-21T16:47:55.123436+00:00", "meta": {"OBJECT_NAME": "IRIDIUM 33 DEB", "OBJECT_ID": "1997-051BV", "EPOCH": "2025-12-21T02:11:40.664832", "MEAN_MOTION": 14.85568668, "ECCENTRICITY": 0.00073568, "INCLINATION": 86.2542, "RA_OF_ASC_NODE": 285.5753, "ARG_OF_PERICENTER": 46.9215, "MEAN_ANOMALY": 326.8092, "EPHEMERIS_TYPE": 0, "CLASSIFICATION_TYPE": "U", "NORAD_CAT_ID": 33960, "ELEMENT_SET_NO": 999, "REV_AT_EPOCH": 88991, "BSTAR": 0.0019890086, "MEAN_MOTION_DOT": 0.00017252, "MEAN_MOTION_DDOT": 0}, "tle": {"line1": "1 33960U 97051BV  25355.09144288  .00017252  00000+0  19890-2 0  9994", "line2": "2 33960  86.2542 285.5753 0007356  46.9215 326.8092 14.85568668889915"}}, "geometry": {"type": "Point", "coordinates": [-72.90482039228053, 25.700372695406394]}}, {"type": "Feature", "properties": {"norad_id": 33966, "name": "IRIDIUM 33 DEB", "group": "iridium-33-debris", "lat": -84.18748190961786, "lon": 3.8697463267524146, "alt_km": 736.8005460398026, "timestamp": "2025-12-21T16:47:55.123447+00:00", "meta": {"OBJECT_NAME": "IRIDIUM 33 DEB", "OBJECT_ID": "1997-051CB", "EPOCH": "2025-12-21T08:58:20.862048", "MEAN_MOTION": 14.49625093, "ECCENTRICITY": 0.0008376, "INCLINATION": 86.3913, "RA_OF_ASC_NODE": 42.3217, "ARG_OF_PERICENTER": 161.0554, "MEAN_ANOMALY": 212.7611, "EPHEMERIS_TYPE": 0, "CLASSIFICATION_TYPE": "U", "NORAD_CAT_ID": 33966, "ELEMENT_SET_NO": 999, "REV_AT_EPOCH": 88567, "BSTAR": 0.00039237, "MEAN_MOTION_DOT": 1.527e-05, "MEAN_MOTION_DDOT": 0}, "tle": {"line1": "1 33966U 97051CB  25355.37385257  .00001527  00000+0  39237-3 0  9990", "line2": "2 33966  86.3913  42.3217 0008376 161.0554 212.7611 14.49625093885671"}}, "geometry": {"type": "Point", "coordinates": [3.8697463267524146, -84.18748190961786]}}, {"type": "Feature", "properties": {"norad_id": 34071, "name": "IRIDIUM 33 DEB", "group": "iridium-33-debris", "lat": -23.398968860066933, "lon": 12.348541716766169, "alt_km": 734.8468169478147, "timestamp": "2025-12-21T16:47:55.123457+00:00", "meta": {"OBJECT_NAME": "IRIDIUM 33 DEB", "OBJECT_ID": "1997-051CE", "EPOCH": "2025-12-21T11:56:10.309056", "MEAN_MOTION": 14.49500102, "ECCENTRICITY": 0.000992, "INCLINATION": 86.3449, "RA_OF_ASC_NODE": 14.0216, "ARG_OF_PERICENTER": 83.977, "MEAN_ANOMALY": 276.2565, "EPHEMERIS_TYPE": 0, "CLASSIFICATION_TYPE": "U", "NORAD_CAT_ID": 34071, "ELEMENT_SET_NO": 999, "REV_AT_EPOCH": 88461, "BSTAR": 0.00045868, "MEAN_MOTION_DOT": 1.778e-05, "MEAN_MOTION_DDOT": 0}, "tle": {"line1": "1 34071U 97051CE  25355.49734154  .00001778  00000+0  45868-3 0  9990", "line2": "2 34071  86.3449  14.0216 0009920  83.9770 276.2565 14.49500102884615"}}, "geometry": {"type": "Point", "coordinates": [12.348541716766169, -23.398968860066933]}}]}